CCSDS_OMM_VERS = 2.0
CREATION_DATE  = 
ORIGINATOR     = 

OBJECT_NAME    = SL-3 R/B
OBJECT_ID      = 1982-079B
CENTER_NAME    = EARTH
REF_FRAME      = TEME
TIME_SYSTEM    = UTC
MEAN_ELEMENT_THEORY = SGP/SGP4

EPOCH          = 2026-02-08T03:09:59.219424
MEAN_MOTION    = 15.24365824
ECCENTRICITY   = .0024124
INCLINATION    = 81.1443
RA_OF_ASC_NODE = 227.9685
ARG_OF_PERICENTER = 266.4274
MEAN_ANOMALY   = 93.4200

EPHEMERIS_TYPE = 0
CLASSIFICATION_TYPE = U
NORAD_CAT_ID   = 13403
ELEMENT_SET_NO = 999
REV_AT_EPOCH   = 37319
BSTAR          = .27251E-3
MEAN_MOTION_DOT = .6752E-4
MEAN_MOTION_DDOT = 0

CCSDS_OMM_VERS = 2.0
CREATION_DATE  = 
ORIGINATOR     = 

OBJECT_NAME    = SL-14 R/B
OBJECT_ID      = 1982-092B
CENTER_NAME    = EARTH
REF_FRAME      = TEME
TIME_SYSTEM    = UTC
MEAN_ELEMENT_THEORY = SGP/SGP4

EPOCH          = 2026-02-07T20:04:25.415328
MEAN_MOTION    = 14.86633146
ECCENTRICITY   = .00213694
INCLINATION    = 82.5702
RA_OF_ASC_NODE = 169.3133
ARG_OF_PERICENTER = 43.5235
MEAN_ANOMALY   = 70.5753

EPHEMERIS_TYPE = 0
CLASSIFICATION_TYPE = U
NORAD_CAT_ID   = 13553
ELEMENT_SET_NO = 999
REV_AT_EPOCH   = 32449
BSTAR          = .84099406E-4
MEAN_MOTION_DOT = .774E-5
MEAN_MOTION_DDOT = 0

CCSDS_OMM_VERS = 2.0
CREATION_DATE  = 
ORIGINATOR     = 

OBJECT_NAME    = SL-3 R/B
OBJECT_ID      = 1983-010B
CENTER_NAME    = EARTH
REF_FRAME      = TEME
TIME_SYSTEM    = UTC
MEAN_ELEMENT_THEORY = SGP/SGP4

EPOCH          = 2026-02-08T01:10:16.929120
MEAN_MOTION    = 15.45304001
ECCENTRICITY   = .0017918
INCLINATION    = 81.1026
RA_OF_ASC_NODE = 38.5589
ARG_OF_PERICENTER = 145.2695
MEAN_ANOMALY   = 214.9723

EPHEMERIS_TYPE = 0
CLASSIFICATION_TYPE = U
NORAD_CAT_ID   = 13819
ELEMENT_SET_NO = 999
REV_AT_EPOCH   = 35336
BSTAR          = .32494E-3
MEAN_MOTION_DOT = .15611E-3
MEAN_MOTION_DDOT = 0

CCSDS_OMM_VERS = 2.0
CREATION_DATE  = 
ORIGINATOR     = 

OBJECT_NAME    = SL-3 R/B
OBJECT_ID      = 1983-075B
CENTER_NAME    = EARTH
REF_FRAME      = TEME
TIME_SYSTEM    = UTC
MEAN_ELEMENT_THEORY = SGP/SGP4

EPOCH          = 2026-02-08T03:35:28.432896
MEAN_MOTION    = 15.37653095
ECCENTRICITY   = .0021177
INCLINATION    = 97.6136
RA_OF_ASC_NODE = 42.6310
ARG_OF_PERICENTER = 340.9374
MEAN_ANOMALY   = 19.1075

EPHEMERIS_TYPE = 0
CLASSIFICATION_TYPE = U
NORAD_CAT_ID   = 14208
ELEMENT_SET_NO = 999
REV_AT_EPOCH   = 32561
BSTAR          = .36926E-3
MEAN_MOTION_DOT = .13672E-3
MEAN_MOTION_DDOT = 0

CCSDS_OMM_VERS = 2.0
CREATION_DATE  = 
ORIGINATOR     = 

OBJECT_NAME    = COSMOS 1536
OBJECT_ID      = 1984-013A
CENTER_NAME    = EARTH
REF_FRAME      = TEME
TIME_SYSTEM    = UTC
MEAN_ELEMENT_THEORY = SGP/SGP4

EPOCH          = 2026-02-07T18:31:36.697728
MEAN_MOTION    = 15.23427809
ECCENTRICITY   = .00149875
INCLINATION    = 82.5469
RA_OF_ASC_NODE = 137.5737
ARG_OF_PERICENTER = 32.8756
MEAN_ANOMALY   = 327.3410

EPHEMERIS_TYPE = 0
CLASSIFICATION_TYPE = U
NORAD_CAT_ID   = 14699
ELEMENT_SET_NO = 999
REV_AT_EPOCH   = 26806
BSTAR          = .33104739E-3
MEAN_MOTION_DOT = .7938E-4
MEAN_MOTION_DDOT = 0

CCSDS_OMM_VERS = 2.0
CREATION_DATE  = 
ORIGINATOR     = 

OBJECT_NAME    = SL-14 R/B
OBJECT_ID      = 1984-027B
CENTER_NAME    = EARTH
REF_FRAME      = TEME
TIME_SYSTEM    = UTC
MEAN_ELEMENT_THEORY = SGP/SGP4

EPOCH          = 2026-02-08T03:09:40.681440
MEAN_MOTION    = 14.85947387
ECCENTRICITY   = .0019466
INCLINATION    = 82.5399
RA_OF_ASC_NODE = 272.7406
ARG_OF_PERICENTER = 72.7664
MEAN_ANOMALY   = 287.5681

EPHEMERIS_TYPE = 0
CLASSIFICATION_TYPE = U
NORAD_CAT_ID   = 14820
ELEMENT_SET_NO = 999
REV_AT_EPOCH   = 24324
BSTAR          = .56431E-4
MEAN_MOTION_DOT = .519E-5
MEAN_MOTION_DDOT = 0

CCSDS_OMM_VERS = 2.0
CREATION_DATE  = 
ORIGINATOR     = 

OBJECT_NAME    = SL-8 R/B
OBJECT_ID      = 1985-006B
CENTER_NAME    = EARTH
REF_FRAME      = TEME
TIME_SYSTEM    = UTC
MEAN_ELEMENT_THEORY = SGP/SGP4

EPOCH          = 2026-02-08T02:16:08.650848
MEAN_MOTION    = 14.37768396
ECCENTRICITY   = .0019527
INCLINATION    = 74.0472
RA_OF_ASC_NODE = 315.6055
ARG_OF_PERICENTER = 239.1309
MEAN_ANOMALY   = 223.6799

EPHEMERIS_TYPE = 0
CLASSIFICATION_TYPE = U
NORAD_CAT_ID   = 15483
ELEMENT_SET_NO = 999
REV_AT_EPOCH   = 14977
BSTAR          = .10728E-3
MEAN_MOTION_DOT = .297E-5
MEAN_MOTION_DDOT = 0

CCSDS_OMM_VERS = 2.0
CREATION_DATE  = 
ORIGINATOR     = 

OBJECT_NAME    = SL-12 R/B(2)
OBJECT_ID      = 1985-042D
CENTER_NAME    = EARTH
REF_FRAME      = TEME
TIME_SYSTEM    = UTC
MEAN_ELEMENT_THEORY = SGP/SGP4

EPOCH          = 2026-02-07T17:39:45.451872
MEAN_MOTION    = 14.21973808
ECCENTRICITY   = .00349873
INCLINATION    = 71.1087
RA_OF_ASC_NODE = 151.0113
ARG_OF_PERICENTER = 176.0840
MEAN_ANOMALY   = 291.8229

EPHEMERIS_TYPE = 0
CLASSIFICATION_TYPE = U
NORAD_CAT_ID   = 15772
ELEMENT_SET_NO = 999
REV_AT_EPOCH   = 11013
BSTAR          = .10318653E-3
MEAN_MOTION_DOT = .182E-5
MEAN_MOTION_DDOT = 0

CCSDS_OMM_VERS = 2.0
CREATION_DATE  = 
ORIGINATOR     = 

OBJECT_NAME    = SL-14 R/B
OBJECT_ID      = 1985-069B
CENTER_NAME    = EARTH
REF_FRAME      = TEME
TIME_SYSTEM    = UTC
MEAN_ELEMENT_THEORY = SGP/SGP4

EPOCH          = 2026-02-08T03:00:38.566368
MEAN_MOTION    = 14.86398003
ECCENTRICITY   = .0017298
INCLINATION    = 82.5240
RA_OF_ASC_NODE = 52.7392
ARG_OF_PERICENTER = 292.3875
MEAN_ANOMALY   = 67.5509

EPHEMERIS_TYPE = 0
CLASSIFICATION_TYPE = U
NORAD_CAT_ID   = 15945
ELEMENT_SET_NO = 999
REV_AT_EPOCH   = 16844
BSTAR          = .66257E-4
MEAN_MOTION_DOT = .61E-5
MEAN_MOTION_DDOT = 0

CCSDS_OMM_VERS = 2.0
CREATION_DATE  = 
ORIGINATOR     = 

OBJECT_NAME    = SL-16 R/B
OBJECT_ID      = 1985-097B
CENTER_NAME    = EARTH
REF_FRAME      = TEME
TIME_SYSTEM    = UTC
MEAN_ELEMENT_THEORY = SGP/SGP4

EPOCH          = 2026-02-07T21:58:43.620096
MEAN_MOTION    = 14.16596400
ECCENTRICITY   = .0009584
INCLINATION    = 71.0016
RA_OF_ASC_NODE = 203.2320
ARG_OF_PERICENTER = 294.5187
MEAN_ANOMALY   = 178.7757

EPHEMERIS_TYPE = 0
CLASSIFICATION_TYPE = U
NORAD_CAT_ID   = 16182
ELEMENT_SET_NO = 999
REV_AT_EPOCH   = 8301
BSTAR          = -.68941E-7
MEAN_MOTION_DOT = -.48E-6
MEAN_MOTION_DDOT = 0

CCSDS_OMM_VERS = 2.0
CREATION_DATE  = 
ORIGINATOR     = 

OBJECT_NAME    = SL-14 R/B
OBJECT_ID      = 1986-006B
CENTER_NAME    = EARTH
REF_FRAME      = TEME
TIME_SYSTEM    = UTC
MEAN_ELEMENT_THEORY = SGP/SGP4

EPOCH          = 2026-02-08T04:15:42.651936
MEAN_MOTION    = 14.86774656
ECCENTRICITY   = .0076973
INCLINATION    = 82.5268
RA_OF_ASC_NODE = 287.5152
ARG_OF_PERICENTER = 11.6997
MEAN_ANOMALY   = 348.5985

EPHEMERIS_TYPE = 0
CLASSIFICATION_TYPE = U
NORAD_CAT_ID   = 16496
ELEMENT_SET_NO = 999
REV_AT_EPOCH   = 14482
BSTAR          = .89866E-4
MEAN_MOTION_DOT = .871E-5
MEAN_MOTION_DDOT = 0

CCSDS_OMM_VERS = 2.0
CREATION_DATE  = 
ORIGINATOR     = 

OBJECT_NAME    = COSMOS 1743
OBJECT_ID      = 1986-034A
CENTER_NAME    = EARTH
REF_FRAME      = TEME
TIME_SYSTEM    = UTC
MEAN_ELEMENT_THEORY = SGP/SGP4

EPOCH          = 2026-02-07T15:16:53.585184
MEAN_MOTION    = 15.56379282
ECCENTRICITY   = .0005128
INCLINATION    = 82.5329
RA_OF_ASC_NODE = 105.3161
ARG_OF_PERICENTER = 55.3863
MEAN_ANOMALY   = 304.7874

EPHEMERIS_TYPE = 0
CLASSIFICATION_TYPE = U
NORAD_CAT_ID   = 16719
ELEMENT_SET_NO = 999
REV_AT_EPOCH   = 17557
BSTAR          = .52843E-3
MEAN_MOTION_DOT = .37421E-3
MEAN_MOTION_DDOT = 0

